OBJECT_NAME,OBJECT_ID,EPOCH,MEAN_MOTION,ECCENTRICITY,INCLINATION,RA_OF_ASC_NODE,ARG_OF_PERICENTER,MEAN_ANOMALY,EPHEMERIS_TYPE,CLASSIFICATION_TYPE,NORAD_CAT_ID,ELEMENT_SET_NO,REV_AT_EPOCH,BSTAR,MEAN_MOTION_DOT,MEAN_MOTION_DDOT,SEMIMAJOR_AXIS,DEBRIS_TYPE,ORBITAL_PERIOD,ORBITAL_PERIOD_HOURS,ALTITUDE,PERIGEE,APOGEE
FENGYUN 1C DEB,1999-025AAN,2024-12-30T16:50:06.983808,14.13965139,0.0125964,98.4583,271.5275,63.9602,326.8308,0,U,30327,999,91531,0.006191,0.00012662,0.0,7223.971765366113,FENGYUN 1C,6110.479353336703,1.6973553759268618,852.9717653661128,7132.975727420855,7314.9678033113705
FENGYUN 1C DEB,1999-025AAP,2024-12-31T20:56:52.080000,14.12219089,0.0006362,98.7005,21.3061,70.7601,53.3066,0,U,30328,999,92382,0.00043226,7.52e-06,0.0,7229.924957873862,FENGYUN 1C,6118.034273503126,1.6994539648619795,858.9249578738618,7225.325279615663,7234.524636132061
FENGYUN 1C DEB,1999-025AAQ,2024-12-31T18:11:56.164416,13.86281212,0.014135,99.2574,283.7556,242.8883,142.9051,0,U,30329,999,90616,0.0011061,1.338e-05,0.0,7319.829239456628,FENGYUN 1C,6232.505146435875,1.7312514295655208,948.8292394566279,7216.363453156909,7423.295025756347
FENGYUN 1C DEB,1999-025AAR,2024-12-31T20:13:49.080288,13.80559613,0.0192087,98.8785,13.4009,34.7898,88.0374,0,U,30330,999,89882,0.00495,5.928e-05,0.0,7340.039523117226,FENGYUN 1C,6258.33517570629,1.7384264376961918,969.039523117226,7199.046905929525,7481.032140304928
FENGYUN 1C DEB,1999-025AAS,2024-12-31T22:47:57.280992,13.97269648,0.0096732,98.9976,43.3287,239.5506,243.2613,0,U,30331,999,91289,0.0012372,1.76e-05,0.0,7281.402263986533,FENGYUN 1C,6183.491354417055,1.7176364873380707,910.4022639865334,7210.967803606539,7351.836724366527
FENGYUN 1C DEB,1999-025AAT,2024-12-31T16:21:45.466272,13.76210147,0.0177901,99.6686,325.8424,282.6908,253.7253,0,U,30332,999,89954,0.0016665,1.775e-05,0.0,7355.496687390015,FENGYUN 1C,6278.1144340722285,1.7439206761311745,984.4966873900148,7224.641665771677,7486.351709008352
FENGYUN 1C DEB,1999-025AAV,2024-12-30T19:10:05.195136,13.90291642,0.0151605,99.0161,109.0442,207.1616,283.2015,0,U,30334,999,90396,0.0056851,7.694e-05,0.0,7305.745962145413,FENGYUN 1C,6214.526885717523,1.7262574682548677,934.7459621454127,7194.987200486307,7416.504723804517
FENGYUN 1C DEB,1999-025AAW,2024-12-31T17:57:17.835840,14.01001546,0.0133714,98.8749,0.9073,13.8134,160.4196,0,U,30335,999,91745,0.00086473,1.357e-05,0.0,7268.466028598952,FENGYUN 1C,6167.020167012264,1.7130611575034067,897.4660285989521,7171.276461944144,7365.65559525376
FENGYUN 1C DEB,1999-025AAX,2024-12-31T21:03:47.928384,14.18589776,0.0042941,98.6305,31.4664,284.8428,250.5072,0,U,30336,999,92697,0.0012384,2.545e-05,0.0,7208.263007284403,FENGYUN 1C,6090.5590427696425,1.6918219563249006,837.2630072844031,7177.310005104823,7239.216009463984
FENGYUN 1C DEB,1999-025AAZ,2024-12-31T10:57:50.122368,14.41805205,0.0291537,98.4979,70.4324,161.4857,212.8006,0,U,30338,999,93144,0.0035103,0.00019126,0.0,7130.677286117529,FENGYUN 1C,5992.491050965072,1.6645808474902977,759.6772861175286,6922.791659721244,7338.562912513813
FENGYUN 1C DEB,1999-025ABA,2024-12-31T11:59:22.358112,14.3096232,0.0021982,98.9754,93.55,10.3106,0.8415,0,U,30339,999,92462,0.0066504,0.00017526,0.0,7166.652982151026,FENGYUN 1C,6037.898180433823,1.6771939390093953,795.6529821510258,7150.899245565661,7182.406718736391
FENGYUN 1C DEB,1999-025ABB,2024-12-31T15:12:59.848128,14.04356784,0.014598,99.0496,59.3705,18.4748,132.7877,0,U,30340,999,91922,0.00031352,5.04e-06,0.0,7256.884377861528,FENGYUN 1C,6152.286147390706,1.7089683742751962,885.8843778615283,7150.948379713505,7362.82037600955
FENGYUN 1C DEB,1999-025ABC,2024-12-30T14:42:53.036640,14.27631532,0.0057308,99.2254,226.4301,344.5844,75.5431,0,U,30341,999,92116,0.0084805,0.00021272,0.0,7177.795600209813,FENGYUN 1C,6051.985119783248,1.681106977717569,806.7956002098126,7136.66108918413,7218.930111235495
FENGYUN 1C DEB,1999-025ABD,2024-12-30T17:03:46.253664,13.7925828,0.0169728,100.1658,152.9626,293.9972,184.2306,0,U,30342,999,90103,0.0020068,2.241e-05,0.0,7344.655692252634,FENGYUN 1C,6264.239927707638,1.740066646585455,973.6556922526343,7219.996320119169,7469.3150643861
FENGYUN 1C DEB,1999-025ABF,2024-12-31T15:46:36.953760,14.43456701,0.0008473,98.8391,67.6273,78.7118,73.6404,0,U,30344,999,93069,0.0065098,0.00022036,0.0,7125.237320724434,FENGYUN 1C,5985.634887566581,1.6626763576573835,754.2373207244336,7119.200107142584,7131.274534306283
FENGYUN 1C DEB,1999-025ABG,2024-12-30T20:08:47.761152,14.35983166,0.0019075,98.9416,45.0288,190.1545,169.9257,0,U,30345,999,92784,0.005515,0.00016041,0.0,7149.937994088217,FENGYUN 1C,6016.786960159506,1.6713297111554182,778.9379940882172,7136.299487364494,7163.576500811941
FENGYUN 1C DEB,1999-025ABH,2024-12-31T11:45:21.081312,14.2832644,0.0060925,98.8145,92.3088,316.0757,107.0876,0,U,30346,999,92460,0.00528,0.00013426,0.0,7175.467321937316,FENGYUN 1C,6049.04071382825,1.6802890871745138,804.4673219373162,7131.750787278414,7219.18385659622
FENGYUN 1C DEB,1999-025ABJ,2024-12-31T13:30:52.457760,13.9253167,0.0149564,98.3997,216.7716,275.8741,110.6069,0,U,30347,999,91142,0.00056805,7.63e-06,0.0,7297.909172750363,FENGYUN 1C,6204.530190826727,1.72348060856298,926.9091727503628,7188.75872399904,7407.059621501686
FENGYUN 1C DEB,1999-025ABK,2024-12-31T17:23:17.886912,14.30090762,0.0019408,98.8711,87.5999,305.7752,207.3839,0,U,30348,999,92579,0.00562,0.00014537,0.0,7169.564461446543,FENGYUN 1C,6041.577931818961,1.6782160921719336,798.5644614465427,7155.6497707397675,7183.479152153319
FENGYUN 1C DEB,1999-025ABL,2024-12-31T21:51:29.321856,14.07730031,0.0090855,98.56,339.7733,276.4168,102.0857,0,U,30349,999,91359,0.0063793,0.00011181,0.0,7245.286959950322,FENGYUN 1C,6137.543845718642,1.7048732904774004,874.286959950322,7179.459905275694,7311.114014624951
FENGYUN 1C DEB,1999-025ABM,2024-12-31T20:30:43.513056,13.8196792,0.0220465,98.1169,227.1115,181.5568,191.029,0,U,30350,999,90203,0.0021544,2.75e-05,0.0,7335.052053022037,FENGYUN 1C,6251.95756222573,1.736654878396036,964.0520530220374,7173.339827935088,7496.764278108988
