FENGYUN 1C DEB          
1 30327U 99025AAN 24365.70146972  .00012662  00000+0  61910-2 0  9991
2 30327  98.4583 271.5275 0125964  63.9602 326.8308 14.13965139915317
FENGYUN 1C DEB          
1 30328U 99025AAP 24366.87282500  .00000752  00000+0  43226-3 0  9997
2 30328  98.7005  21.3061 0006362  70.7601  53.3066 14.12219089923822
FENGYUN 1C DEB          
1 30329U 99025AAQ 24366.75828894  .00001338  00000+0  11061-2 0  9999
2 30329  99.2574 283.7556 0141350 242.8883 142.9051 13.86281212906168
FENGYUN 1C DEB          
1 30330U 99025AAR 24366.84292917  .00005928  00000+0  49500-2 0  9990
2 30330  98.8785  13.4009 0192087  34.7898  88.0374 13.80559613898825
FENGYUN 1C DEB          
1 30331U 99025AAS 24366.94996853  .00001760  00000+0  12372-2 0  9999
2 30331  98.9976  43.3287 0096732 239.5506 243.2613 13.97269648912899
FENGYUN 1C DEB          
1 30332U 99025AAT 24366.68177623  .00001775  00000+0  16665-2 0  9992
2 30332  99.6686 325.8424 0177901 282.6908 253.7253 13.76210147899549
FENGYUN 1C DEB          
1 30334U 99025AAV 24365.79867124  .00007694  00000+0  56851-2 0  9994
2 30334  99.0161 109.0442 0151605 207.1616 283.2015 13.90291642903967
FENGYUN 1C DEB          
1 30335U 99025AAW 24366.74812310  .00001357  00000+0  86473-3 0  9992
2 30335  98.8749   0.9073 0133714  13.8134 160.4196 14.01001546917454
FENGYUN 1C DEB          
1 30336U 99025AAX 24366.87763806  .00002545  00000+0  12384-2 0  9991
2 30336  98.6305  31.4664 0042941 284.8428 250.5072 14.18589776926978
FENGYUN 1C DEB          
1 30338U 99025AAZ 24366.45683012  .00019126  00000+0  35103-2 0  9994
2 30338  98.4979  70.4324 0291537 161.4857 212.8006 14.41805205931444
FENGYUN 1C DEB          
1 30339U 99025ABA 24366.49956433  .00017526  00000+0  66504-2 0  9990
2 30339  98.9754  93.5500 0021982  10.3106   0.8415 14.30962320924628
FENGYUN 1C DEB          
1 30340U 99025ABB 24366.63402602  .00000504  00000+0  31352-3 0  9994
2 30340  99.0496  59.3705 0145980  18.4748 132.7877 14.04356784919227
FENGYUN 1C DEB          
1 30341U 99025ABC 24365.61311385  .00021272  00000+0  84805-2 0  9994
2 30341  99.2254 226.4301 0057308 344.5844  75.5431 14.27631532921165
FENGYUN 1C DEB          
1 30342U 99025ABD 24365.71095201  .00002241  00000+0  20068-2 0  9998
2 30342 100.1658 152.9626 0169728 293.9972 184.2306 13.79258280901032
FENGYUN 1C DEB          
1 30344U 99025ABF 24366.65737215  .00022036  00000+0  65098-2 0  9998
2 30344  98.8391  67.6273 0008473  78.7118  73.6404 14.43456701930695
FENGYUN 1C DEB          
1 30345U 99025ABG 24365.83944168  .00016041  00000+0  55150-2 0  9992
2 30345  98.9416  45.0288 0019075 190.1545 169.9257 14.35983166927843
FENGYUN 1C DEB          
1 30346U 99025ABH 24366.48982733  .00013426  00000+0  52800-2 0  9998
2 30346  98.8145  92.3088 0060925 316.0757 107.0876 14.28326440924608
FENGYUN 1C DEB          
1 30347U 99025ABJ 24366.56310715  .00000763  00000+0  56805-3 0  9993
2 30347  98.3997 216.7716 0149564 275.8741 110.6069 13.92531670911424
FENGYUN 1C DEB          
1 30348U 99025ABK 24366.72451258  .00014537  00000+0  56200-2 0  9992
2 30348  98.8711  87.5999 0019408 305.7752 207.3839 14.30090762925798
FENGYUN 1C DEB          
1 30349U 99025ABL 24366.91075604  .00011181  00000+0  63793-2 0  9998
2 30349  98.5600 339.7733 0090855 276.4168 102.0857 14.07730031913591
FENGYUN 1C DEB          
1 30350U 99025ABM 24366.85467029  .00002750  00000+0  21544-2 0  9999
2 30350  98.1169 227.1115 0220465 181.5568 191.0290 13.81967920902031
